EOSSAT-1                
1 55053U 23001AW  26068.73619225  .00007695  00000+0  24844-3 0  9992
2 55053  97.3357 130.2294 0011263 110.3168 249.9285 15.32339828176689
STARLINK-32732          
1 62488U 25003B   26068.02095088  .00028163  00000+0  10288-2 0  9992
2 62488  43.0035 292.3743 0002184 287.6864  72.3750 15.27585522 66458
